CCSDS_OMM_VERS = 2.0
CREATION_DATE  = 
ORIGINATOR     = 

OBJECT_NAME    = CZ-2C R/B
OBJECT_ID      = 2022-058K
CENTER_NAME    = EARTH
REF_FRAME      = TEME
TIME_SYSTEM    = UTC
MEAN_ELEMENT_THEORY = SGP/SGP4

EPOCH          = 2025-11-20T23:38:36.248064
MEAN_MOTION    = 15.46981525
ECCENTRICITY   = .0047934
INCLINATION    = 50.1882
RA_OF_ASC_NODE = 154.3661
ARG_OF_PERICENTER = 108.4429
MEAN_ANOMALY   = 252.1757

EPHEMERIS_TYPE = 0
CLASSIFICATION_TYPE = U
NORAD_CAT_ID   = 52794
ELEMENT_SET_NO = 999
REV_AT_EPOCH   = 19326
BSTAR          = .45194E-3
MEAN_MOTION_DOT = .23905E-3
MEAN_MOTION_DDOT = 0

CCSDS_OMM_VERS = 2.0
CREATION_DATE  = 
ORIGINATOR     = 

OBJECT_NAME    = CZ-2C R/B
OBJECT_ID      = 2022-132E
CENTER_NAME    = EARTH
REF_FRAME      = TEME
TIME_SYSTEM    = UTC
MEAN_ELEMENT_THEORY = SGP/SGP4

EPOCH          = 2025-11-21T11:37:09.016896
MEAN_MOTION    = 15.53112559
ECCENTRICITY   = .0023652
INCLINATION    = 97.2946
RA_OF_ASC_NODE = 321.3059
ARG_OF_PERICENTER = 126.8491
MEAN_ANOMALY   = 233.4936

EPHEMERIS_TYPE = 0
CLASSIFICATION_TYPE = U
NORAD_CAT_ID   = 54039
ELEMENT_SET_NO = 999
REV_AT_EPOCH   = 17353
BSTAR          = .48149E-3
MEAN_MOTION_DOT = .30477E-3
MEAN_MOTION_DDOT = 0

CCSDS_OMM_VERS = 2.0
CREATION_DATE  = 
ORIGINATOR     = 

OBJECT_NAME    = GSLV R/B
OBJECT_ID      = 2022-138AN
CENTER_NAME    = EARTH
REF_FRAME      = TEME
TIME_SYSTEM    = UTC
MEAN_ELEMENT_THEORY = SGP/SGP4

EPOCH          = 2025-11-21T01:12:21.118752
MEAN_MOTION    = 14.95969216
ECCENTRICITY   = .0021415
INCLINATION    = 87.3848
RA_OF_ASC_NODE = 202.7342
ARG_OF_PERICENTER = 179.4425
MEAN_ANOMALY   = 180.6834

EPHEMERIS_TYPE = 0
CLASSIFICATION_TYPE = U
NORAD_CAT_ID   = 54149
ELEMENT_SET_NO = 999
REV_AT_EPOCH   = 16768
BSTAR          = .1937E-3
MEAN_MOTION_DOT = .2208E-4
MEAN_MOTION_DDOT = 0

CCSDS_OMM_VERS = 2.0
CREATION_DATE  = 
ORIGINATOR     = 

OBJECT_NAME    = XRISM
OBJECT_ID      = 2023-137A
CENTER_NAME    = EARTH
REF_FRAME      = TEME
TIME_SYSTEM    = UTC
MEAN_ELEMENT_THEORY = SGP/SGP4

EPOCH          = 2025-11-21T00:33:11.452608
MEAN_MOTION    = 15.10042607
ECCENTRICITY   = .0007721
INCLINATION    = 31.0030
RA_OF_ASC_NODE = 265.7261
ARG_OF_PERICENTER = 24.0441
MEAN_ANOMALY   = 336.0557

EPHEMERIS_TYPE = 0
CLASSIFICATION_TYPE = U
NORAD_CAT_ID   = 57800
ELEMENT_SET_NO = 999
REV_AT_EPOCH   = 12134
BSTAR          = .35961E-3
MEAN_MOTION_DOT = .6093E-4
MEAN_MOTION_DDOT = 0

CCSDS_OMM_VERS = 2.0
CREATION_DATE  = 
ORIGINATOR     = 

OBJECT_NAME    = ACS3
OBJECT_ID      = 2024-077B
CENTER_NAME    = EARTH
REF_FRAME      = TEME
TIME_SYSTEM    = UTC
MEAN_ELEMENT_THEORY = SGP/SGP4

EPOCH          = 2025-11-20T20:38:29.603040
MEAN_MOTION    = 13.84073880
ECCENTRICITY   = .0067409
INCLINATION    = 97.2950
RA_OF_ASC_NODE = 285.3355
ARG_OF_PERICENTER = 17.2641
MEAN_ANOMALY   = 343.0790

EPHEMERIS_TYPE = 0
CLASSIFICATION_TYPE = U
NORAD_CAT_ID   = 59588
ELEMENT_SET_NO = 999
REV_AT_EPOCH   = 7911
BSTAR          = .31641E-1
MEAN_MOTION_DOT = .35965E-3
MEAN_MOTION_DDOT = 0

