CZ-2C R/B               
1 52794U 22058K   25324.98514176  .00023905  00000+0  45194-3 0  9995
2 52794  50.1882 154.3661 0047934 108.4429 252.1757 15.46981525193260
CZ-2C R/B               
1 54039U 22132E   25325.48413214  .00030477  00000+0  48149-3 0  9994
2 54039  97.2946 321.3059 0023652 126.8491 233.4936 15.53112559173538
GSLV R/B                
1 54149U 22138AN  25325.05024443  .00002208  00000+0  19370-3 0  9992
2 54149  87.3848 202.7342 0021415 179.4425 180.6834 14.95969216167688
XRISM                   
1 57800U 23137A   25325.02304922  .00006093  00000+0  35961-3 0  9999
2 57800  31.0030 265.7261 0007721  24.0441 336.0557 15.10042607121346
ACS3                    
1 59588U 24077B   25324.86006485  .00035965  00000+0  31641-1 0  9991
2 59588  97.2950 285.3355 0067409  17.2641 343.0790 13.84073880 79113
